NORAD_CAT_ID,OBJECT_NAME,OBJECT_TYPE,EPOCH,MEAN_MOTION,ECCENTRICITY,INCLINATION,RA_OF_ASC_NODE,ARG_OF_PERICENTER,MEAN_ANOMALY,BSTAR,MEAN_MOTION_DOT,MEAN_MOTION_DDOT,TLE_LINE0,TLE_LINE1,TLE_LINE2,SEMIMAJOR_AXIS,PERIOD,APOGEE,PERIGEE,DECAYED
53267.0,STARLINK-4060,PAYLOAD,2023-12-28 19:33:07,15.08853744,0.0001454,53.2142,193.8773,77.9535,282.162,0.00019524,2.822e-05,0.0,0 STARLINK-4060,1 53267U 22086AB  23362.81467111  .00002822  00000-0  19524-3 0  9994,2 53267  53.2142 193.8773 0001454  77.9535 282.1620 15.08853744 79833,6917.838,95.437,540.709,538.698,0.0
53267.0,STARLINK-4060,PAYLOAD,2023-12-29 17:48:31,15.08841751,0.0001436,53.2146,189.712,106.7019,253.4131,-1.7587e-05,-5.68e-06,0.0,0 STARLINK-4060,1 53267U 22086AB  23363.74203316 -.00000568  00000-0 -17587-4 0  9997,2 53267  53.2146 189.7120 0001436 106.7019 253.4131 15.08841751 79973,6917.875,95.437,540.733,538.747,0.0
53267.0,STARLINK-4060,PAYLOAD,2023-12-30 12:53:09,15.08835432,0.0001536,53.2155,186.1437,101.3254,258.7911,-0.00011234,-2.075e-05,0.0,0 STARLINK-4060,1 53267U 22086AB  23364.53691805 -.00002075  00000-0 -11234-3 0  9996,2 53267  53.2155 186.1437 0001536 101.3254 258.7911 15.08835432 80276,6917.894,95.438,540.822,538.697,0.0
53267.0,STARLINK-4060,PAYLOAD,2023-12-30 19:14:42,15.08839314,0.0001406,53.2162,184.9542,100.8365,259.2786,-2.7039e-05,-7.18e-06,0.0,0 STARLINK-4060,1 53267U 22086AB  23364.80187950 -.00000718  00000-0 -27039-4 0  9990,2 53267  53.2162 184.9542 0001406 100.8365 259.2786 15.08839314 80134,6917.882,95.438,540.72,538.775,0.0
53267.0,STARLINK-4060,PAYLOAD,2023-12-31 11:08:34,15.08830227,0.0001389,53.2163,181.9811,92.7288,267.3863,0.00010878,1.443e-05,0.0,0 STARLINK-4060,1 53267U 22086AB  23365.46428508  .00001443  00000-0  10878-3 0  9996,2 53267  53.2163 181.9811 0001389  92.7288 267.3863 15.08830227 80235,6917.91,95.438,540.736,538.814,0.0
53267.0,STARLINK-4060,PAYLOAD,2023-12-31 17:30:06,15.08833435,0.0001345,53.2159,180.7926,93.2431,266.8715,0.00012733,1.739e-05,0.0,0 STARLINK-4060,1 53267U 22086AB  23365.72924396  .00001739  00000-0  12733-3 0  9991,2 53267  53.2159 180.7926 0001345  93.2431 266.8715 15.08833435 80450,6917.9,95.438,540.696,538.835,0.0
53267.0,STARLINK-4060,PAYLOAD,2024-01-01 18:56:16,15.08839051,0.0001317,53.2158,176.035,91.1664,268.948,0.00013002,1.782e-05,0.0,0 STARLINK-4060,1 53267U 22086AB  24001.78908450  .00001782  00000-0  13002-3 0  9996,2 53267  53.2158 176.0350 0001317  91.1664 268.9480 15.08839051 80432,6917.883,95.438,540.659,538.837,0.0
53267.0,STARLINK-4060,PAYLOAD,2024-01-01 20:31:39,15.08840815,0.0001332,53.2158,175.7373,97.2449,262.8694,0.00014427,2.009e-05,0.0,0 STARLINK-4060,1 53267U 22086AB  24001.85532304  .00002009  00000-0  14427-3 0  9990,2 53267  53.2158 175.7373 0001332  97.2449 262.8694 15.08840815 80629,6917.878,95.438,540.664,538.821,0.0
53267.0,STARLINK-4060,PAYLOAD,2024-01-02 10:50:08,15.08841085,0.0001317,53.2157,173.0613,99.4774,260.6367,0.0001014,1.326e-05,0.0,0 STARLINK-4060,1 53267U 22086AB  24002.45148465  .00001326  00000-0  10140-3 0  9997,2 53267  53.2157 173.0613 0001317  99.4774 260.6367 15.08841085 80717,6917.877,95.437,540.653,538.831,0.0
53267.0,STARLINK-4060,PAYLOAD,2024-01-02 18:47:03,15.08841068,0.0001319,53.2158,171.5739,98.5786,261.5355,7.7837e-05,9.51e-06,0.0,0 STARLINK-4060,1 53267U 22086AB  24002.78268496  .00000951  00000-0  77837-4 0  9990,2 53267  53.2158 171.5739 0001319  98.5786 261.5355 15.08841068 80768,6917.877,95.437,540.655,538.83,0.0
53267.0,STARLINK-4060,PAYLOAD,2024-01-03 10:40:55,15.08839271,0.0001331,53.2158,168.6001,96.4863,263.6281,3.6438e-05,2.92e-06,0.0,0 STARLINK-4060,1 53267U 22086AB  24003.44508764  .00000292  00000-0  36438-4 0  9999,2 53267  53.2158 168.6001 0001331  96.4863 263.6281 15.08839271 80689,6917.883,95.438,540.668,538.827,0.0
53267.0,STARLINK-4060,PAYLOAD,2024-01-03 17:02:28,15.08840236,0.0001311,53.2159,167.4105,96.9314,263.1827,3.8038e-05,3.18e-06,0.0,0 STARLINK-4060,1 53267U 22086AB  24003.71004677  .00000318  00000-0  38038-4 0  9990,2 53267  53.2159 167.4105 0001311  96.9314 263.1827 15.08840236 80905,6917.88,95.438,540.652,538.838,0.0
53267.0,STARLINK-4060,PAYLOAD,2024-01-04 16:53:14,15.08845129,0.0001333,53.2159,162.9505,82.4413,277.6731,0.00010588,1.398e-05,0.0,0 STARLINK-4060,1 53267U 22086AB  24004.70364156  .00001398  00000-0  10588-3 0  9999,2 53267  53.2159 162.9505 0001333  82.4413 277.6731 15.08845129 80879,6917.865,95.437,540.652,538.808,0.0
53267.0,STARLINK-4060,PAYLOAD,2024-01-05 10:22:29,15.08836396,0.0001762,53.2156,159.6833,51.0144,309.1004,9.0785e-05,1.157e-05,0.0,0 STARLINK-4060,1 53267U 22086AB  24005.43228929  .00001157  00000-0  90785-4 0  9998,2 53267  53.2156 159.6833 0001762  51.0144 309.1004 15.08836396 80984,6917.891,95.438,540.975,538.537,0.0
53267.0,STARLINK-4060,PAYLOAD,2024-01-05 13:33:16,15.08835136,0.0001359,53.2157,159.0862,70.6108,289.5031,5.2947e-05,5.55e-06,0.0,0 STARLINK-4060,1 53267U 22086AB  24005.56476999  .00000555  00000-0  52947-4 0  9993,2 53267  53.2157 159.0862 0001359  70.6108 289.5031 15.08835136 81185,6917.895,95.438,540.7,538.82,0.0
53267.0,STARLINK-4060,PAYLOAD,2024-01-05 19:54:48,15.08839196,0.0001274,53.2161,157.8948,87.4563,272.6575,4.5257e-05,4.32e-06,0.0,0 STARLINK-4060,1 53267U 22086AB  24005.82972723  .00000432  00000-0  45257-4 0  9998,2 53267  53.2161 157.8948 0001274  87.4563 272.6575 15.08839196 81229,6917.883,95.438,540.629,538.867,0.0
53267.0,STARLINK-4060,PAYLOAD,2024-01-06 10:13:16,15.0884469,0.0001348,53.2165,155.2172,90.1908,269.9238,-5.0709e-05,-1.095e-05,0.0,0 STARLINK-4060,1 53267U 22086AB  24006.42588808 -.00001095  00000-0 -50709-4 0  9998,2 53267  53.2165 155.2172 0001348  90.1908 269.9238 15.08844690 81310,6917.866,95.437,540.664,538.799,0.0
53267.0,STARLINK-4060,PAYLOAD,2024-01-06 14:59:25,15.08844449,0.0001338,53.2169,154.3251,86.0646,274.0499,1.3193e-05,-7.8e-07,0.0,0 STARLINK-4060,1 53267U 22086AB  24006.62460570 -.00000078  00000-0  13193-4 0  9990,2 53267  53.2169 154.3251 0001338  86.0646 274.0499 15.08844449 81165,6917.867,95.437,540.657,538.806,0.0
53267.0,STARLINK-4060,PAYLOAD,2024-01-07 10:04:03,15.08837203,0.000131,53.2167,150.7575,88.9646,271.1496,5.1737e-05,5.36e-06,0.0,0 STARLINK-4060,1 53267U 22086AB  24007.41948996  .00000536  00000-0  51737-4 0  9995,2 53267  53.2167 150.7575 0001310  88.9646 271.1496 15.08837203 81281,6917.889,95.438,540.66,538.848,0.0
53267.0,STARLINK-4060,PAYLOAD,2024-01-07 14:50:13,15.08838463,0.0001308,53.2165,149.8655,94.6417,265.4725,7.7845e-05,9.51e-06,0.0,0 STARLINK-4060,1 53267U 22086AB  24007.61820875  .00000951  00000-0  77845-4 0  9991,2 53267  53.2165 149.8655 0001308  94.6417 265.4725 15.08838463 81497,6917.885,95.438,540.655,538.845,0.0
53267.0,STARLINK-4060,PAYLOAD,2024-01-08 14:41:00,15.08840809,0.0001305,53.2164,145.4058,91.6336,268.4806,5.9311e-05,6.56e-06,0.0,0 STARLINK-4060,1 53267U 22086AB  24008.61180922  .00000656  00000-0  59311-4 0  9994,2 53267  53.2164 145.4058 0001305  91.6336 268.4806 15.08840809 81646,6917.878,95.438,540.646,538.84,0.0
53267.0,STARLINK-4060,PAYLOAD,2024-01-09 14:31:47,15.08843458,0.0001287,53.2166,140.9461,85.1291,274.9848,8.646e-05,1.089e-05,0.0,0 STARLINK-4060,1 53267U 22086AB  24009.60540849  .00001089  00000-0  86460-4 0  9998,2 53267  53.2166 140.9461 0001287  85.1291 274.9848 15.08843458 81790,6917.87,95.437,540.625,538.844,0.0
53267.0,STARLINK-4060,PAYLOAD,2024-01-09 17:42:33,15.08847795,0.0001308,53.2165,140.3508,93.1091,267.0051,0.00012316,1.673e-05,0.0,0 STARLINK-4060,1 53267U 22086AB  24009.73788426  .00001673  00000-0  12316-3 0  9994,2 53267  53.2165 140.3508 0001308  93.1091 267.0051 15.08847795 81636,6917.857,95.437,540.626,538.817,0.0
53267.0,STARLINK-4060,PAYLOAD,2024-01-10 08:01:02,15.08838774,0.0001422,53.2173,137.6753,84.9507,275.1648,4.6532e-05,4.53e-06,0.0,0 STARLINK-4060,1 53267U 22086AB  24010.33405207  .00000453  00000-0  46532-4 0  9998,2 53267  53.2173 137.6753 0001422  84.9507 275.1648 15.08838774 81722,6917.884,95.438,540.733,538.765,0.0
53267.0,STARLINK-4060,PAYLOAD,2024-01-10 17:33:20,15.08846426,0.0001265,53.2163,135.8901,95.8369,264.2767,0.0001199,1.621e-05,0.0,0 STARLINK-4060,1 53267U 22086AB  24010.73148588  .00001621  00000-0  11990-3 0  9995,2 53267  53.2163 135.8901 0001265  95.8369 264.2767 15.08846426 81788,6917.861,95.437,540.601,538.851,0.0
53267.0,STARLINK-4060,PAYLOAD,2024-01-11 11:02:35,15.08839207,0.000145,53.2168,132.6177,70.3612,289.7537,5.9835e-06,-1.93e-06,0.0,0 STARLINK-4060,1 53267U 22086AB  24011.46013513 -.00000193  00000-0  59835-5 0  9991,2 53267  53.2168 132.6177 0001450  70.3612 289.7537 15.08839207 81896,6917.883,95.438,540.751,538.745,0.0
53267.0,STARLINK-4060,PAYLOAD,2024-01-11 14:13:21,15.08846121,0.0001348,53.2164,132.0229,90.7131,269.4016,7.0897e-05,8.41e-06,0.0,0 STARLINK-4060,1 53267U 22086AB  24011.59260791  .00000841  00000-0  70897-4 0  9996,2 53267  53.2164 132.0229 0001348  90.7131 269.4016 15.08846121 82095,6917.862,95.437,540.659,538.794,0.0
53267.0,STARLINK-4060,PAYLOAD,2024-01-11 17:24:07,15.08848244,0.0001748,53.2176,131.423,67.0529,293.0648,7.4379e-05,8.96e-06,0.0,0 STARLINK-4060,1 53267U 22086AB  24011.72508679  .00000896  00000-0  74379-4 0  9990,2 53267  53.2176 131.4230 0001748  67.0529 293.0648 15.08848244 81939,6917.855,95.437,540.929,538.511,0.0
53267.0,STARLINK-4060,PAYLOAD,2024-01-12 10:53:22,15.08842474,0.0001778,53.2169,128.1578,112.6281,247.4899,2.4107e-05,9.6e-07,0.0,0 STARLINK-4060,1 53267U 22086AB  24012.45373097  .00000096  00000-0  24107-4 0  9991,2 53267  53.2169 128.1578 0001778 112.6281 247.4899 15.08842474 82047,6917.873,95.437,540.968,538.508,0.0
53267.0,STARLINK-4060,PAYLOAD,2024-01-12 14:04:08,15.0884349,0.0001501,53.217,127.5635,100.7333,259.3828,3.835e-05,3.22e-06,0.0,0 STARLINK-4060,1 53267U 22086AB  24012.58621075  .00000322  00000-0  38350-4 0  9994,2 53267  53.2170 127.5635 0001501 100.7333 259.3828 15.08843490 82241,6917.87,95.437,540.773,538.696,0.0
